[Satellite]
VERSION=1.1
NAME=METEOR-M 1
NICKNAME=METEOR-M 1
TLE1=1 35865U 09049A   22342.36089985  .00000115  00000+0  70995-4 0  9990
TLE2=2 35865  98.5536 307.4261 0003427  82.7111 277.4457 14.22384736686268
STATUS=0
